start=new Date('2023-06-20T00:00:00.000Z').valueOf();
sats=[{"EPOCH":"2023-06-19T08:04:08.555232","FILE":"3937509","INCLINATION":"53.0528","REV_AT_EPOCH":"17549","ELEMENT_SET_NO":"999","OBJECT_ID":"2020-025AJ","MEAN_MOTION_DOT":"0.00013510","BSTAR":"0.00092449000000","OBJECT_NAME":"STARLINK-1355","TIME_SYSTEM":"UTC","GP_ID":"234314921","EPHEMERIS_TYPE":"0","MEAN_ELEMENT_THEORY":"SGP4","COUNTRY_CODE":"US","CLASSIFICATION_TYPE":"U","RA_OF_ASC_NODE":"230.4464","PERIOD":"95.593","PERIAPSIS":"546.456","MEAN_MOTION_DDOT":"0.0000000000000","DECAY_DATE":null,"ARG_OF_PERICENTER":"88.0302","SEMIMAJOR_AXIS":"6925.393","REF_FRAME":"TEME","MEAN_MOTION":"15.06385623","MEAN_ANOMALY":"272.0819","OBJECT_TYPE":"PAYLOAD","RCS_SIZE":"LARGE","NORAD_CAT_ID":"45563","APOAPSIS":"548.059","TLE_LINE2":"2 45563  53.0528 230.4464 0001157  88.0302 272.0819 15.06385623175490","SITE":"AFETR","ECCENTRICITY":"0.00011570","CENTER_NAME":"EARTH","LAUNCH_DATE":"2020-04-22","TLE_LINE1":"1 45563U 20025AJ  23170.33621013  .00013510  00000-0  92449-3 0  9995"},{"SITE":"AFETR","LAUNCH_DATE":"2020-04-22","TLE_LINE1":"1 45564U 20025AK  23170.86330978  .00006691  00000-0  46783-3 0  9993","CENTER_NAME":"EARTH","ECCENTRICITY":"0.00011030","TLE_LINE2":"2 45564  53.0530 228.0781 0001103  81.0022 279.1092 15.06387601175570","APOAPSIS":"548.015","MEAN_ANOMALY":"279.1092","OBJECT_TYPE":"PAYLOAD","NORAD_CAT_ID":"45564","RCS_SIZE":"LARGE","SEMIMAJOR_AXIS":"6925.387","REF_FRAME":"TEME","MEAN_MOTION":"15.06387601","DECAY_DATE":null,"ARG_OF_PERICENTER":"81.0022","PERIAPSIS":"546.488","MEAN_MOTION_DDOT":"0.0000000000000","MEAN_ELEMENT_THEORY":"SGP4","COUNTRY_CODE":"US","CLASSIFICATION_TYPE":"U","RA_OF_ASC_NODE":"228.0781","PERIOD":"95.593","BSTAR":"0.00046783000000","EPHEMERIS_TYPE":"0","OBJECT_NAME":"STARLINK-1356","TIME_SYSTEM":"UTC","GP_ID":"234315674","INCLINATION":"53.0530","REV_AT_EPOCH":"17557","ELEMENT_SET_NO":"999","EPOCH":"2023-06-19T20:43:09.964992","FILE":"3937509","MEAN_MOTION_DOT":"0.00006691","OBJECT_ID":"2020-025AK"},{"APOAPSIS":"548.034","TLE_LINE2":"2 45565  53.0529 228.1083 0001196  83.6964 276.4161 15.06402601175575","CENTER_NAME":"EARTH","ECCENTRICITY":"0.00011960","LAUNCH_DATE":"2020-04-22","TLE_LINE1":"1 45565U 20025AL  23170.85592581  .00012117  00000-0  83088-3 0  9992","SITE":"AFETR","MEAN_MOTION":"15.06402601","REF_FRAME":"TEME","SEMIMAJOR_AXIS":"6925.341","RCS_SIZE":"LARGE","NORAD_CAT_ID":"45565","OBJECT_TYPE":"PAYLOAD","MEAN_ANOMALY":"276.4161","PERIOD":"95.592","CLASSIFICATION_TYPE":"U","RA_OF_ASC_NODE":"228.1083","COUNTRY_CODE":"US","MEAN_ELEMENT_THEORY":"SGP4","MEAN_MOTION_DDOT":"0.0000000000000","PERIAPSIS":"546.377","ARG_OF_PERICENTER":"83.6964","DECAY_DATE":null,"OBJECT_ID":"2020-025AL","MEAN_MOTION_DOT":"0.00012117","FILE":"3937509","EPOCH":"2023-06-19T20:32:31.989984","REV_AT_EPOCH":"17557","ELEMENT_SET_NO":"999","INCLINATION":"53.0529","GP_ID":"234315924","TIME_SYSTEM":"UTC","OBJECT_NAME":"STARLINK-1357","EPHEMERIS_TYPE":"0","BSTAR":"0.00083088000000"},{"SEMIMAJOR_AXIS":"6925.372","REF_FRAME":"TEME","MEAN_MOTION":"15.06392434","MEAN_ANOMALY":"275.2832","OBJECT_TYPE":"PAYLOAD","RCS_SIZE":"LARGE","NORAD_CAT_ID":"45566","TLE_LINE2":"2 45566  53.0522 228.0474 0000977  84.8268 275.2832 15.06392434175572","APOAPSIS":"547.913","SITE":"AFETR","LAUNCH_DATE":"2020-04-22","TLE_LINE1":"1 45566U 20025AM  23170.87068060  .00009175  00000-0  63414-3 0  9996","CENTER_NAME":"EARTH","ECCENTRICITY":"0.00009770","INCLINATION":"53.0522","REV_AT_EPOCH":"17557","ELEMENT_SET_NO":"999","EPOCH":"2023-06-19T20:53:46.803840","FILE":"3937509","MEAN_MOTION_DOT":"0.00009175","OBJECT_ID":"2020-025AM","BSTAR":"0.00063414000000","EPHEMERIS_TYPE":"0","TIME_SYSTEM":"UTC","OBJECT_NAME":"STARLINK-1358","GP_ID":"234314673","COUNTRY_CODE":"US","MEAN_ELEMENT_THEORY":"SGP4","CLASSIFICATION_TYPE":"U","RA_OF_ASC_NODE":"228.0474","PERIOD":"95.593","DECAY_DATE":null,"ARG_OF_PERICENTER":"84.8268","PERIAPSIS":"546.560","MEAN_MOTION_DDOT":"0.0000000000000"},{"GP_ID":"234314421","OBJECT_NAME":"STARLINK-1361","TIME_SYSTEM":"UTC","EPHEMERIS_TYPE":"0","BSTAR":"0.00038775000000","OBJECT_ID":"2020-025AN","MEAN_MOTION_DOT":"0.00005495","FILE":"3937509","EPOCH":"2023-06-19T21:09:42.996960","REV_AT_EPOCH":"17558","ELEMENT_SET_NO":"999","INCLINATION":"53.0530","MEAN_MOTION_DDOT":"0.0000000000000","PERIAPSIS":"546.234","ARG_OF_PERICENTER":"89.7510","DECAY_DATE":null,"PERIOD":"95.594","CLASSIFICATION_TYPE":"U","RA_OF_ASC_NODE":"227.9980","MEAN_ELEMENT_THEORY":"SGP4","COUNTRY_CODE":"US","RCS_SIZE":"LARGE","NORAD_CAT_ID":"45567","OBJECT_TYPE":"PAYLOAD","MEAN_ANOMALY":"270.3653","MEAN_MOTION":"15.06375800","REF_FRAME":"TEME","SEMIMAJOR_AXIS":"6925.423","ECCENTRICITY":"0.00015210","CENTER_NAME":"EARTH","TLE_LINE1":"1 45567U 20025AN  23170.88174765  .00005495  00000-0  38775-3 0  9991","LAUNCH_DATE":"2020-04-22","SITE":"AFETR","APOAPSIS":"548.341","TLE_LINE2":"2 45567  53.0530 227.9980 0001521  89.7510 270.3653 15.06375800175588"},{"LAUNCH_DATE":"2020-04-22","TLE_LINE1":"1 45568U 20025AP  23170.89650316  .00007530  00000-0  52397-3 0  9992","ECCENTRICITY":"0.00011380","CENTER_NAME":"EARTH","SITE":"AFETR","TLE_LINE2":"2 45568  53.0519 228.1705 0001138  81.4515 278.6603 15.06393038175570","APOAPSIS":"548.023","RCS_SIZE":"LARGE","NORAD_CAT_ID":"45568","OBJECT_TYPE":"PAYLOAD","MEAN_ANOMALY":"278.6603","MEAN_MOTION":"15.06393038","SEMIMAJOR_AXIS":"6925.370","REF_FRAME":"TEME","ARG_OF_PERICENTER":"81.4515","DECAY_DATE":null,"MEAN_MOTION_DDOT":"0.0000000000000","PERIAPSIS":"546.447","PERIOD":"95.593","CLASSIFICATION_TYPE":"U","RA_OF_ASC_NODE":"228.1705","COUNTRY_CODE":"US","MEAN_ELEMENT_THEORY":"SGP4","EPHEMERIS_TYPE":"0","GP_ID":"234315174","TIME_SYSTEM":"UTC","OBJECT_NAME":"STARLINK-1363","BSTAR":"0.00052397000000","MEAN_MOTION_DOT":"0.00007530","OBJECT_ID":"2020-025AP","REV_AT_EPOCH":"17557","ELEMENT_SET_NO":"999","INCLINATION":"53.0519","FILE":"3937509","EPOCH":"2023-06-19T21:30:57.873024"},{"APOAPSIS":"547.821","TLE_LINE2":"2 45569  53.0526 228.8722 0000941  78.6158 281.4937 15.06414401175544","SITE":"AFETR","CENTER_NAME":"EARTH","ECCENTRICITY":"0.00009410","LAUNCH_DATE":"2020-04-22","TLE_LINE1":"1 45569U 20025AQ  23170.68637851  .00008926  00000-0  61715-3 0  9993","SEMIMAJOR_AXIS":"6925.304","REF_FRAME":"TEME","MEAN_MOTION":"15.06414401","MEAN_ANOMALY":"281.4937","OBJECT_TYPE":"PAYLOAD","RCS_SIZE":"LARGE","NORAD_CAT_ID":"45569","MEAN_ELEMENT_THEORY":"SGP4","COUNTRY_CODE":"US","RA_OF_ASC_NODE":"228.8722","CLASSIFICATION_TYPE":"U","PERIOD":"95.591","PERIAPSIS":"546.518","MEAN_MOTION_DDOT":"0.0000000000000","DECAY_DATE":null,"ARG_OF_PERICENTER":"78.6158","FILE":"3937509","EPOCH":"2023-06-19T16:28:23.103264","INCLINATION":"53.0526","REV_AT_EPOCH":"17554","ELEMENT_SET_NO":"999","OBJECT_ID":"2020-025AQ","MEAN_MOTION_DOT":"0.00008926","BSTAR":"0.00061715000000","OBJECT_NAME":"STARLINK-1366","TIME_SYSTEM":"UTC","GP_ID":"234315424","EPHEMERIS_TYPE":"0"},{"GP_ID":"234314173","TIME_SYSTEM":"UTC","OBJECT_NAME":"STARLINK-1376","EPHEMERIS_TYPE":"0","BSTAR":"0.00057018000000","OBJECT_ID":"2020-025AR","MEAN_MOTION_DOT":"0.00008218","EPOCH":"2023-06-19T08:20:04.148736","FILE":"3937509","REV_AT_EPOCH":"17549","ELEMENT_SET_NO":"999","INCLINATION":"53.0521","MEAN_MOTION_DDOT":"0.0000000000000","PERIAPSIS":"546.445","ARG_OF_PERICENTER":"85.6972","DECAY_DATE":null,"PERIOD":"95.593","RA_OF_ASC_NODE":"230.3962","CLASSIFICATION_TYPE":"U","COUNTRY_CODE":"US","MEAN_ELEMENT_THEORY":"SGP4","NORAD_CAT_ID":"45570","RCS_SIZE":"LARGE","MEAN_ANOMALY":"274.4153","OBJECT_TYPE":"PAYLOAD","MEAN_MOTION":"15.06382414","REF_FRAME":"TEME","SEMIMAJOR_AXIS":"6925.402","ECCENTRICITY":"0.00011880","CENTER_NAME":"EARTH","LAUNCH_DATE":"2020-04-22","TLE_LINE1":"1 45570U 20025AR  23170.34727024  .00008218  00000-0  57018-3 0  9995","SITE":"AFETR","APOAPSIS":"548.090","TLE_LINE2":"2 45570  53.0521 230.3962 0001188  85.6972 274.4153 15.06382414175495"},{"PERIOD":"95.592","CLASSIFICATION_TYPE":"U","RA_OF_ASC_NODE":"220.0290","COUNTRY_CODE":"US","MEAN_ELEMENT_THEORY":"SGP4","MEAN_MOTION_DDOT":"0.0000000000000","PERIAPSIS":"546.364","ARG_OF_PERICENTER":"85.8955","DECAY_DATE":null,"OBJECT_ID":"2020-025AS","MEAN_MOTION_DOT":"0.00004316","FILE":"3937338","EPOCH":"2023-06-19T10:18:09.528480","REV_AT_EPOCH":"17566","ELEMENT_SET_NO":"999","INCLINATION":"53.0522","GP_ID":"234284990","OBJECT_NAME":"STARLINK-1261","TIME_SYSTEM":"UTC","EPHEMERIS_TYPE":"0","BSTAR":"0.00030850000000","APOAPSIS":"548.078","TLE_LINE2":"2 45571  53.0522 220.0290 0001238  85.8955 274.2175 15.06397579175665","ECCENTRICITY":"0.00012380","CENTER_NAME":"EARTH","TLE_LINE1":"1 45571U 20025AS  23170.42927695  .00004316  00000-0  30850-3 0  9991","LAUNCH_DATE":"2020-04-22","SITE":"AFETR","MEAN_MOTION":"15.06397579","REF_FRAME":"TEME","SEMIMAJOR_AXIS":"6925.356","RCS_SIZE":"LARGE","NORAD_CAT_ID":"45571","OBJECT_TYPE":"PAYLOAD","MEAN_ANOMALY":"274.2175"},{"BSTAR":"0.00095806000000","OBJECT_NAME":"STARLINK-1320","TIME_SYSTEM":"UTC","GP_ID":"234315675","EPHEMERIS_TYPE":"0","FILE":"3937509","EPOCH":"2023-06-19T08:23:18.568608","INCLINATION":"53.0524","REV_AT_EPOCH":"17565","ELEMENT_SET_NO":"999","OBJECT_ID":"2020-025AT","MEAN_MOTION_DOT":"0.00015260","PERIAPSIS":"535.843","MEAN_MOTION_DDOT":"0.0000000000000","DECAY_DATE":null,"ARG_OF_PERICENTER":"2.3971","MEAN_ELEMENT_THEORY":"SGP4","COUNTRY_CODE":"US","CLASSIFICATION_TYPE":"U","RA_OF_ASC_NODE":"219.6284","PERIOD":"95.398","OBJECT_TYPE":"PAYLOAD","MEAN_ANOMALY":"357.7032","RCS_SIZE":"LARGE","NORAD_CAT_ID":"45572","SEMIMAJOR_AXIS":"6915.946","REF_FRAME":"TEME","MEAN_MOTION":"15.09473148","SITE":"AFETR","ECCENTRICITY":"0.00028450","CENTER_NAME":"EARTH","TLE_LINE1":"1 45572U 20025AT  23170.34952047  .00015260  00000-0  95806-3 0  9994","LAUNCH_DATE":"2020-04-22","APOAPSIS":"539.778","TLE_LINE2":"2 45572  53.0524 219.6284 0002845   2.3971 357.7032 15.09473148175650"}];
